{
 "type": "FeatureCollection",
 "name": "monitoreo_aves_y_camaras",
 "crs": {
  "type": "name",
  "properties": {
   "name": "urn:ogc:def:crs:OGC:1.3:CRS84"
  }
 },
 "features": [
  {
   "type": "Feature",
   "properties": {
    "id": "monitoreo_aves_y_camaras.2",
    "tessellate": -1,
    "extrude": 0,
    "visibility": -1,
    "id2": 2.0,
    "Tipo1": "Aves",
    "COD": "A2"
   },
   "geometry": {
    "type": "Point",
    "coordinates": [
     -75.1667267651084,
     10.605081649116,
     0.0
    ]
   }
  },
  {
   "type": "Feature",
   "properties": {
    "id": "monitoreo_aves_y_camaras.3",
    "tessellate": -1,
    "extrude": 0,
    "visibility": -1,
    "id2": 3.0,
    "Tipo1": "Aves",
    "COD": "A3"
   },
   "geometry": {
    "type": "Point",
    "coordinates": [
     -75.1704472960103,
     10.6056131308942,
     0.0
    ]
   }
  },
  {
   "type": "Feature",
   "properties": {
    "id": "monitoreo_aves_y_camaras.4",
    "tessellate": -1,
    "extrude": 0,
    "visibility": -1,
    "id2": 4.0,
    "Tipo1": "Aves",
    "COD": "A4"
   },
   "geometry": {
    "type": "Point",
    "coordinates": [
     -75.1682082798367,
     10.6075414013657,
     0.0
    ]
   }
  },
  {
   "type": "Feature",
   "properties": {
    "id": "monitoreo_aves_y_camaras.1",
    "tessellate": -1,
    "extrude": 0,
    "visibility": -1,
    "id2": 1.0,
    "Tipo1": "Aves",
    "COD": "A1"
   },
   "geometry": {
    "type": "Point",
    "coordinates": [
     -75.1702638024555,
     10.6031688794388,
     0.0
    ]
   }
  },
  {
   "type": "Feature",
   "properties": {
    "id": "monitoreo_aves_y_camaras.5",
    "tessellate": -1,
    "extrude": 0,
    "visibility": -1,
    "id2": 5.0,
    "Tipo1": "Aves",
    "COD": "A5"
   },
   "geometry": {
    "type": "Point",
    "coordinates": [
     -75.1705172269242,
     10.6075440439391,
     0.0
    ]
   }
  },
  {
   "type": "Feature",
   "properties": {
    "id": "monitoreo_aves_y_camaras.6",
    "tessellate": -1,
    "extrude": 0,
    "visibility": -1,
    "id2": 6.0,
    "Tipo1": "Aves",
    "COD": "A6"
   },
   "geometry": {
    "type": "Point",
    "coordinates": [
     -75.1660711830253,
     10.608101713084,
     0.0
    ]
   }
  },
  {
   "type": "Feature",
   "properties": {
    "id": "monitoreo_aves_y_camaras.7",
    "tessellate": -1,
    "extrude": 0,
    "visibility": -1,
    "id2": 7.0,
    "Tipo1": "Aves",
    "COD": "A7"
   },
   "geometry": {
    "type": "Point",
    "coordinates": [
     -75.1670782947869,
     10.6100651787326,
     0.0
    ]
   }
  },
  {
   "type": "Feature",
   "properties": {
    "id": "monitoreo_aves_y_camaras.C2",
    "tessellate": -1,
    "extrude": 0,
    "visibility": -1,
    "id2": 2.0,
    "Tipo1": "Camara",
    "COD": "C2"
   },
   "geometry": {
    "type": "Point",
    "coordinates": [
     -75.165990253776,
     10.6076798616534
    ]
   }
  },
  {
   "type": "Feature",
   "properties": {
    "id": "monitoreo_aves_y_camaras.C3",
    "tessellate": -1,
    "extrude": 0,
    "visibility": -1,
    "id2": 3.0,
    "Tipo1": "Camara",
    "COD": "C3"
   },
   "geometry": {
    "type": "Point",
    "coordinates": [
     -75.165830353199,
     10.6105402240971
    ]
   }
  },
  {
   "type": "Feature",
   "properties": {
    "id": "monitoreo_aves_y_camaras.C4",
    "tessellate": -1,
    "extrude": 0,
    "visibility": -1,
    "id2": 4.0,
    "Tipo1": "Camara",
    "COD": "C4"
   },
   "geometry": {
    "type": "Point",
    "coordinates": [
     -75.1695413777554,
     10.6029355433286
    ]
   }
  },
  {
   "type": "Feature",
   "properties": {
    "id": "monitoreo_aves_y_camaras.C5",
    "tessellate": -1,
    "extrude": 0,
    "visibility": -1,
    "id2": 5.0,
    "Tipo1": "Camara",
    "COD": "C5"
   },
   "geometry": {
    "type": "Point",
    "coordinates": [
     -75.1685491607773,
     10.6044690178099
    ]
   }
  },
  {
   "type": "Feature",
   "properties": {
    "id": "monitoreo_aves_y_camaras.C7",
    "tessellate": -1,
    "extrude": 0,
    "visibility": -1,
    "id2": 7.0,
    "Tipo1": "Camara",
    "COD": "C7"
   },
   "geometry": {
    "type": "Point",
    "coordinates": [
     -75.1709971312563,
     10.6033135193436
    ]
   }
  }
 ]
}